ONEWEB-0685             
1 54679U 22166AP  24124.49116868 -.00000006  00000+0 -45664-4 0  9990
2 54679  87.9317  38.1852 0001716  72.9181 287.2141 13.21823842 69079
ONEWEB-0712             
1 54680U 22166AQ  24124.45387261 -.00000025  00000+0 -99377-4 0  9996
2 54680  87.9143  22.9968 0001844  93.5684 266.5658 13.16596301 70117
ONEWEB-0714             
1 54681U 22166AR  24124.49747896 -.00000008  00000+0 -51949-4 0  9999
2 54681  87.9320  38.1694 0001705  73.7147 286.4175 13.21824347 69191
ONEWEB-0532             
1 55140U 23004A   24124.55972585  .00000025  00000+0  31246-4 0  9999
2 55140  87.9187 160.0260 0002454  81.6026 278.5383 13.17648059 65573
ONEWEB-0533             
1 55141U 23004B   24124.58346158  .00000463  00000+0  12504-2 0  9994
2 55141  87.8943 144.8495 0001880  91.4493 268.6851 13.12444056 66456
ONEWEB-0541             
1 55142U 23004C   24124.61882669 -.00000295  00000+0 -86685-3 0  9998
2 55142  87.8994 175.1333 0002043  94.8322 265.3039 13.11414095 64427
ONEWEB-0543             
1 55143U 23004D   24124.54104080  .00000041  00000+0  70132-4 0  9993
2 55143  87.9115 129.7567 0001832  99.6657 260.4682 13.18683603 67600
ONEWEB-0544             
1 55144U 23004E   24124.53472569  .00000083  00000+0  17694-3 0  9992
2 55144  87.9117 129.7423 0002190  91.5469 268.5914 13.18684402 67609
